[{"OBJECT_NAME":"STARLINK-30930","OBJECT_ID":"2023-178M","EPOCH":"2026-03-09T05:06:21.892032","MEAN_MOTION":15.30204033,"ECCENTRICITY":0.00013289,"INCLINATION":53.1624,"RA_OF_ASC_NODE":2.9127,"ARG_OF_PERICENTER":125.1056,"MEAN_ANOMALY":235.0069,"EPHEMERIS_TYPE":0,"CLASSIFICATION_TYPE":"U","NORAD_CAT_ID":58385,"ELEMENT_SET_NO":999,"REV_AT_EPOCH":12969,"BSTAR":9.8399339e-5,"MEAN_MOTION_DOT":2.556e-5,"MEAN_MOTION_DDOT":0},{"OBJECT_NAME":"FENGYUN 1C DEB","OBJECT_ID":"1999-025AJJ","EPOCH":"2026-03-09T18:40:58.380672","MEAN_MOTION":15.18672988,"ECCENTRICITY":0.00638575,"INCLINATION":98.7226,"RA_OF_ASC_NODE":259.4919,"ARG_OF_PERICENTER":168.3626,"MEAN_ANOMALY":191.9098,"EPHEMERIS_TYPE":0,"CLASSIFICATION_TYPE":"U","NORAD_CAT_ID":30520,"ELEMENT_SET_NO":999,"REV_AT_EPOCH":2360,"BSTAR":0.0014000942,"MEAN_MOTION_DOT":0.0003064,"MEAN_MOTION_DDOT":0}]
